STARLINK-35856          
1 67013U 25293L   26008.25003472 -.00121991  00000+0 -20074-2 0  9996
2 67013  69.9996 248.8581 0003304 269.5817 111.6468 15.52565285  4354
STARLINK-36207          
1 67014U 25293M   26008.25003472 -.00125049  00000+0 -20586-2 0  9993
2 67014  69.9996 248.8554 0003308 272.2234 110.9247 15.52564625  4414
STARLINK-36093          
1 67015U 25293N   26008.25003472 -.00117409  00000+0 -19308-2 0  9995
2 67015  69.9996 248.8511 0003390 269.7720 117.2032 15.52563704  4352
STARLINK-36120          
1 67016U 25293P   26008.25003472 -.00108933  00000+0 -17897-2 0  9999
2 67016  69.9996 248.8529 0003346 267.8987 117.1641 15.52558211  4359
STARLINK-35498          
1 67017U 25293Q   26008.24487614  .00068710  00000+0  11082-2 0  9999
2 67017  69.9994 248.8631 0003529 259.1354 100.9436 15.52562884  5788
STARLINK-36106          
1 67018U 25293R   26008.24453930  .00121130  00000+0  19389-2 0  9998
2 67018  69.9991 248.8629 0002985 289.5449  70.5415 15.52561437  5782
STARLINK-35688          
1 67019U 25293S   26008.05090090  .00059948  00000+0  96824-3 0  9999
2 67019  69.9995 249.3898 0003772 266.6099  93.4657 15.52562686  5759
STARLINK-36172          
1 67020U 25293T   26008.25003472 -.00102626  00000+0 -16849-2 0  9993
2 67020  69.9995 248.8420 0003328 269.1853 125.4619 15.52553456  4465
STARLINK-36184          
1 67021U 25293U   26008.25003472 -.00123331  00000+0 -20298-2 0  9993
2 67021  69.9997 248.8394 0003249 270.4327 126.1277 15.52564763  4462
STARLINK-36209          
1 67022U 25293V   26008.25003472 -.00133959  00000+0 -22073-2 0  9994
2 67022  69.9995 248.8372 0003441 270.7049 127.7722 15.52570994  4460
STARLINK-36191          
1 67023U 25293W   26008.25003472 -.00097848  00000+0 -16052-2 0  9991
2 67023  69.9996 248.8351 0003335 272.4079 127.9818 15.52555997  4355
STARLINK-36192          
1 67024U 25293X   26008.11361723  .00124953  00000+0  19968-2 0  9998
2 67024  69.9996 249.2070 0003882 270.4073  89.6669 15.52590121  5760
