CCSDS_OMM_VERS = 2.0
CREATION_DATE  = 
ORIGINATOR     = 

OBJECT_NAME    = STARLINK-35856
OBJECT_ID      = 2025-293L
CENTER_NAME    = EARTH
REF_FRAME      = TEME
TIME_SYSTEM    = UTC
MEAN_ELEMENT_THEORY = SGP/SGP4

EPOCH          = 2026-01-08T06:00:02.999808
MEAN_MOTION    = 15.52565285
ECCENTRICITY   = .00033045
INCLINATION    = 69.9996
RA_OF_ASC_NODE = 248.8581
ARG_OF_PERICENTER = 269.5817
MEAN_ANOMALY   = 111.6468

EPHEMERIS_TYPE = 0
CLASSIFICATION_TYPE = U
NORAD_CAT_ID   = 67013
ELEMENT_SET_NO = 999
REV_AT_EPOCH   = 435
BSTAR          = -.20073561E-2
MEAN_MOTION_DOT = -.121991E-2
MEAN_MOTION_DDOT = 0

CCSDS_OMM_VERS = 2.0
CREATION_DATE  = 
ORIGINATOR     = 

OBJECT_NAME    = STARLINK-36207
OBJECT_ID      = 2025-293M
CENTER_NAME    = EARTH
REF_FRAME      = TEME
TIME_SYSTEM    = UTC
MEAN_ELEMENT_THEORY = SGP/SGP4

EPOCH          = 2026-01-08T06:00:02.999808
MEAN_MOTION    = 15.52564625
ECCENTRICITY   = .00033082
INCLINATION    = 69.9996
RA_OF_ASC_NODE = 248.8554
ARG_OF_PERICENTER = 272.2234
MEAN_ANOMALY   = 110.9247

EPHEMERIS_TYPE = 0
CLASSIFICATION_TYPE = U
NORAD_CAT_ID   = 67014
ELEMENT_SET_NO = 999
REV_AT_EPOCH   = 441
BSTAR          = -.20585721E-2
MEAN_MOTION_DOT = -.125049E-2
MEAN_MOTION_DDOT = 0

CCSDS_OMM_VERS = 2.0
CREATION_DATE  = 
ORIGINATOR     = 

OBJECT_NAME    = STARLINK-36093
OBJECT_ID      = 2025-293N
CENTER_NAME    = EARTH
REF_FRAME      = TEME
TIME_SYSTEM    = UTC
MEAN_ELEMENT_THEORY = SGP/SGP4

EPOCH          = 2026-01-08T06:00:02.999808
MEAN_MOTION    = 15.52563704
ECCENTRICITY   = .00033909
INCLINATION    = 69.9996
RA_OF_ASC_NODE = 248.8511
ARG_OF_PERICENTER = 269.7720
MEAN_ANOMALY   = 117.2032

EPHEMERIS_TYPE = 0
CLASSIFICATION_TYPE = U
NORAD_CAT_ID   = 67015
ELEMENT_SET_NO = 999
REV_AT_EPOCH   = 435
BSTAR          = -.19308209E-2
MEAN_MOTION_DOT = -.117409E-2
MEAN_MOTION_DDOT = 0

CCSDS_OMM_VERS = 2.0
CREATION_DATE  = 
ORIGINATOR     = 

OBJECT_NAME    = STARLINK-36120
OBJECT_ID      = 2025-293P
CENTER_NAME    = EARTH
REF_FRAME      = TEME
TIME_SYSTEM    = UTC
MEAN_ELEMENT_THEORY = SGP/SGP4

EPOCH          = 2026-01-08T06:00:02.999808
MEAN_MOTION    = 15.52558211
ECCENTRICITY   = .00033469
INCLINATION    = 69.9996
RA_OF_ASC_NODE = 248.8529
ARG_OF_PERICENTER = 267.8987
MEAN_ANOMALY   = 117.1641

EPHEMERIS_TYPE = 0
CLASSIFICATION_TYPE = U
NORAD_CAT_ID   = 67016
ELEMENT_SET_NO = 999
REV_AT_EPOCH   = 435
BSTAR          = -.17897149E-2
MEAN_MOTION_DOT = -.108933E-2
MEAN_MOTION_DDOT = 0

CCSDS_OMM_VERS = 2.0
CREATION_DATE  = 
ORIGINATOR     = 

OBJECT_NAME    = STARLINK-35498
OBJECT_ID      = 2025-293Q
CENTER_NAME    = EARTH
REF_FRAME      = TEME
TIME_SYSTEM    = UTC
MEAN_ELEMENT_THEORY = SGP/SGP4

EPOCH          = 2026-01-08T05:52:37.298496
MEAN_MOTION    = 15.52562884
ECCENTRICITY   = .00035298
INCLINATION    = 69.9994
RA_OF_ASC_NODE = 248.8631
ARG_OF_PERICENTER = 259.1354
MEAN_ANOMALY   = 100.9436

EPHEMERIS_TYPE = 0
CLASSIFICATION_TYPE = U
NORAD_CAT_ID   = 67017
ELEMENT_SET_NO = 999
REV_AT_EPOCH   = 578
BSTAR          = .11081689E-2
MEAN_MOTION_DOT = .6871E-3
MEAN_MOTION_DDOT = 0

CCSDS_OMM_VERS = 2.0
CREATION_DATE  = 
ORIGINATOR     = 

OBJECT_NAME    = STARLINK-36106
OBJECT_ID      = 2025-293R
CENTER_NAME    = EARTH
REF_FRAME      = TEME
TIME_SYSTEM    = UTC
MEAN_ELEMENT_THEORY = SGP/SGP4

EPOCH          = 2026-01-08T05:52:08.195520
MEAN_MOTION    = 15.52561437
ECCENTRICITY   = .00029859
INCLINATION    = 69.9991
RA_OF_ASC_NODE = 248.8629
ARG_OF_PERICENTER = 289.5449
MEAN_ANOMALY   = 70.5415

EPHEMERIS_TYPE = 0
CLASSIFICATION_TYPE = U
NORAD_CAT_ID   = 67018
ELEMENT_SET_NO = 999
REV_AT_EPOCH   = 578
BSTAR          = .19388993E-2
MEAN_MOTION_DOT = .12113E-2
MEAN_MOTION_DDOT = 0

CCSDS_OMM_VERS = 2.0
CREATION_DATE  = 
ORIGINATOR     = 

OBJECT_NAME    = STARLINK-35688
OBJECT_ID      = 2025-293S
CENTER_NAME    = EARTH
REF_FRAME      = TEME
TIME_SYSTEM    = UTC
MEAN_ELEMENT_THEORY = SGP/SGP4

EPOCH          = 2026-01-08T01:13:17.837760
MEAN_MOTION    = 15.52562686
ECCENTRICITY   = .00037722
INCLINATION    = 69.9995
RA_OF_ASC_NODE = 249.3898
ARG_OF_PERICENTER = 266.6099
MEAN_ANOMALY   = 93.4657

EPHEMERIS_TYPE = 0
CLASSIFICATION_TYPE = U
NORAD_CAT_ID   = 67019
ELEMENT_SET_NO = 999
REV_AT_EPOCH   = 575
BSTAR          = .96824489E-3
MEAN_MOTION_DOT = .59948E-3
MEAN_MOTION_DDOT = 0

CCSDS_OMM_VERS = 2.0
CREATION_DATE  = 
ORIGINATOR     = 

OBJECT_NAME    = STARLINK-36172
OBJECT_ID      = 2025-293T
CENTER_NAME    = EARTH
REF_FRAME      = TEME
TIME_SYSTEM    = UTC
MEAN_ELEMENT_THEORY = SGP/SGP4

EPOCH          = 2026-01-08T06:00:02.999808
MEAN_MOTION    = 15.52553456
ECCENTRICITY   = .00033285
INCLINATION    = 69.9995
RA_OF_ASC_NODE = 248.8420
ARG_OF_PERICENTER = 269.1853
MEAN_ANOMALY   = 125.4619

EPHEMERIS_TYPE = 0
CLASSIFICATION_TYPE = U
NORAD_CAT_ID   = 67020
ELEMENT_SET_NO = 999
REV_AT_EPOCH   = 446
BSTAR          = -.16849001E-2
MEAN_MOTION_DOT = -.102626E-2
MEAN_MOTION_DDOT = 0

CCSDS_OMM_VERS = 2.0
CREATION_DATE  = 
ORIGINATOR     = 

OBJECT_NAME    = STARLINK-36184
OBJECT_ID      = 2025-293U
CENTER_NAME    = EARTH
REF_FRAME      = TEME
TIME_SYSTEM    = UTC
MEAN_ELEMENT_THEORY = SGP/SGP4

EPOCH          = 2026-01-08T06:00:02.999808
MEAN_MOTION    = 15.52564763
ECCENTRICITY   = .00032491
INCLINATION    = 69.9997
RA_OF_ASC_NODE = 248.8394
ARG_OF_PERICENTER = 270.4327
MEAN_ANOMALY   = 126.1277

EPHEMERIS_TYPE = 0
CLASSIFICATION_TYPE = U
NORAD_CAT_ID   = 67021
ELEMENT_SET_NO = 999
REV_AT_EPOCH   = 446
BSTAR          = -.20298371E-2
MEAN_MOTION_DOT = -.123331E-2
MEAN_MOTION_DDOT = 0

CCSDS_OMM_VERS = 2.0
CREATION_DATE  = 
ORIGINATOR     = 

OBJECT_NAME    = STARLINK-36209
OBJECT_ID      = 2025-293V
CENTER_NAME    = EARTH
REF_FRAME      = TEME
TIME_SYSTEM    = UTC
MEAN_ELEMENT_THEORY = SGP/SGP4

EPOCH          = 2026-01-08T06:00:02.999808
MEAN_MOTION    = 15.52570994
ECCENTRICITY   = .00034416
INCLINATION    = 69.9995
RA_OF_ASC_NODE = 248.8372
ARG_OF_PERICENTER = 270.7049
MEAN_ANOMALY   = 127.7722

EPHEMERIS_TYPE = 0
CLASSIFICATION_TYPE = U
NORAD_CAT_ID   = 67022
ELEMENT_SET_NO = 999
REV_AT_EPOCH   = 446
BSTAR          = -.22073344E-2
MEAN_MOTION_DOT = -.133959E-2
MEAN_MOTION_DDOT = 0

CCSDS_OMM_VERS = 2.0
CREATION_DATE  = 
ORIGINATOR     = 

OBJECT_NAME    = STARLINK-36191
OBJECT_ID      = 2025-293W
CENTER_NAME    = EARTH
REF_FRAME      = TEME
TIME_SYSTEM    = UTC
MEAN_ELEMENT_THEORY = SGP/SGP4

EPOCH          = 2026-01-08T06:00:02.999808
MEAN_MOTION    = 15.52555997
ECCENTRICITY   = .00033354
INCLINATION    = 69.9996
RA_OF_ASC_NODE = 248.8351
ARG_OF_PERICENTER = 272.4079
MEAN_ANOMALY   = 127.9818

EPHEMERIS_TYPE = 0
CLASSIFICATION_TYPE = U
NORAD_CAT_ID   = 67023
ELEMENT_SET_NO = 999
REV_AT_EPOCH   = 435
BSTAR          = -.16052094E-2
MEAN_MOTION_DOT = -.97848E-3
MEAN_MOTION_DDOT = 0

CCSDS_OMM_VERS = 2.0
CREATION_DATE  = 
ORIGINATOR     = 

OBJECT_NAME    = STARLINK-36192
OBJECT_ID      = 2025-293X
CENTER_NAME    = EARTH
REF_FRAME      = TEME
TIME_SYSTEM    = UTC
MEAN_ELEMENT_THEORY = SGP/SGP4

EPOCH          = 2026-01-08T02:43:36.528672
MEAN_MOTION    = 15.52590121
ECCENTRICITY   = .00038821
INCLINATION    = 69.9996
RA_OF_ASC_NODE = 249.2070
ARG_OF_PERICENTER = 270.4073
MEAN_ANOMALY   = 89.6669

EPHEMERIS_TYPE = 0
CLASSIFICATION_TYPE = U
NORAD_CAT_ID   = 67024
ELEMENT_SET_NO = 999
REV_AT_EPOCH   = 576
BSTAR          = .1996798E-2
MEAN_MOTION_DOT = .124953E-2
MEAN_MOTION_DDOT = 0

